STARLINK-33716          
1 63486U 25070AC  26068.91949223  .00037283  00000+0  13568-2 0  9999
2 63486  43.0054 258.3221 0002896 275.4213  84.6308 15.27596358 53016
KUIPER-00208            
1 67775U 26030M   26068.67231510  .00043852  00000+0  13883-2 0  9996
2 67775  51.8846 219.6993 0015524  57.3146 302.9333 15.32208734  5089
